COSMOS 2476 (744)       
1 37867U 11064A   26081.32240285  .00000034  00000+0  00000+0 0  9991
2 37867  65.2205  75.8028 0025128 241.8014 242.7933  2.13103886111916
